TIANWANG 1C (TW-1C)     
1 40926U 15051B   17225.40131416  .00005080  00000-0  11549-3 0  9996
2 40926  97.2254 264.5308 0010227 329.5805 155.8152 15.43403943105744
TIANWANG 1B (TW-1B)     
1 40927U 15051C   17225.51494072  .00004914  00000-0  11601-3 0  9993
2 40927  97.2339 264.6358 0010519 341.4624 156.2238 15.42284091105707
TIANWANG 1A (TW-1A)     
1 40928U 15051D   17225.41283045  .00002434  00000-0  70546-4 0  9998
2 40928  97.2227 260.1988 0012465   1.2352 123.7496 15.36449755105488
LAPAN-A2 (IO-86)        
1 40931U 15052B   17225.45652311  .00000720  00000-0  11262-4 0  9999
2 40931   5.9990 184.3890 0013820 334.9645  24.9839 14.76536302101444
LQSAT                   
1 40958U 15057A   17225.44582857  .00000046  00000-0  14919-4 0  9992
2 40958  97.9751 299.7571 0016898 240.9793 118.9723 14.72976791 99543
CHUBUSAT-2              
1 41338U 16012B   17224.92433442  .00000314  00000-0  17871-4 0  9992
2 41338  31.0036 111.9106 0014110 260.9170  98.9869 14.99770554 81510
CHUBUSAT-3              
1 41339U 16012C   17225.11100812  .00000280  00000-0  15113-4 0  9996
2 41339  31.0112 109.7799 0013981 269.0697  90.8331 14.99973610 81522
OUFTI-1                 
1 41458U 16025C   17224.89074850  .00001163  00000-0  65442-4 0  9999
2 41458  98.1814 265.7165 0175925 100.4303 261.6802 15.03347588 71105
E-ST@R-II               
1 41459U 16025D   17224.91790450  .00001919  00000-0  10539-3 0  9999
2 41459  98.1820 265.6825 0176104 100.5593 261.5523 15.03186167 71098
AAUSAT 4                
1 41460U 16025E   17225.41307167  .00001650  00000-0  91336-4 0  9993
2 41460  98.1724 266.3426 0168566  96.7381 265.3072 15.04123128 71193
NUSAT 1 (LO-87)         
1 41557U 16033B   17225.28249777  .00001306  00000-0  51676-4 0  9997
2 41557  97.4610 304.7984 0014831 160.0471 200.1351 15.27195835 67148
BEESAT-4                
1 41619U 16040W   17225.10450504  .00001264  00000-0  60263-4 0  9992
2 41619  97.4580 286.9344 0010933 223.3673 136.6703 15.20911227 51242
PRATHAM                 
1 41783U 16059A   17225.41225477  .00000025  00000-0  14311-4 0  9994
2 41783  98.1625 286.1801 0033155 343.6954  16.3178 14.62849297 46966
ALSAT 1N                
1 41789U 16059G   17225.42177278  .00000076  00000-0  23692-4 0  9994
2 41789  98.1636 286.8013 0027945 337.9163  22.0839 14.64063573 46981
NAYIF-1 (EO-88)         
1 42017U 17008BX  17225.19867526  .00001414  00000-0  62896-4 0  9996
2 42017  97.4908 286.5368 0007322  34.7162 325.4551 15.23151218 27168
LILACSAT-1              
1 42725U 98067ME  17225.26233108  .00010758  00000-0  15726-3 0  9997
2 42725  51.6394 113.0420 0007320 156.4397 203.6931 15.56184669 12365
MAX VALIER SAT          
1 42778U 17036P   17225.40954344  .00001026  00000-0  50111-4 0  9996
2 42778  97.4473 284.5645 0014518  70.5100 289.7702 15.20431748  7726
